{"type": "FeatureCollection", "features": [ {"type": "Feature", "properties": {"norad_id": 66460, "name": "STARLINK-35424", "group": "last-30-days", "lat": -42.557632536178865, "lon": 32.07848178832958, "alt_km": 418.47324534247855, "timestamp": "2025-12-05T16:54:13.485450+00:00", "meta": {"OBJECT_NAME": "STARLINK-35424", "OBJECT_ID": "2025-262E", "EPOCH": "2025-12-05T06:00:02.000160", "MEAN_MOTION": 15.51215751, "ECCENTRICITY": 0.00010191, "INCLINATION": 43.0001, "RA_OF_ASC_NODE": 114.9116, "ARG_OF_PERICENTER": 291.0003, "MEAN_ANOMALY": 326.9782, "EPHEMERIS_TYPE": 0, "CLASSIFICATION_TYPE": "U", "NORAD_CAT_ID": 66460, "ELEMENT_SET_NO": 999, "REV_AT_EPOCH": 443, "BSTAR": -0.017279042, "MEAN_MOTION_DOT": -0.00951041, "MEAN_MOTION_DDOT": 0}, "tle": {"line1": "1 66460U 25262E   25339.25002315 -.00951041  00000+0 -17279-1 0  9997", "line2": "2 66460  43.0001 114.9116 0001019 291.0003 326.9782 15.51215751  4432"}}, "geometry": {"type": "Point", "coordinates": [32.07848178832958, -42.557632536178865]}}, {"type": "Feature", "properties": {"norad_id": 66461, "name": "STARLINK-35132", "group": "last-30-days", "lat": -42.30570846837529, "lon": 34.64854991942777, "alt_km": 418.4981186663781, "timestamp": "2025-12-05T16:54:13.485459+00:00", "meta": {"OBJECT_NAME": "STARLINK-35132", "OBJECT_ID": "2025-262F", "EPOCH": "2025-12-05T06:00:02.000160", "MEAN_MOTION": 15.51206195, "ECCENTRICITY": 8.836e-05, "INCLINATION": 43.0001, "RA_OF_ASC_NODE": 114.9067, "ARG_OF_PERICENTER": 282.4655, "MEAN_ANOMALY": 337.432, "EPHEMERIS_TYPE": 0, "CLASSIFICATION_TYPE": "U", "NORAD_CAT_ID": 66461, "ELEMENT_SET_NO": 999, "REV_AT_EPOCH": 443, "BSTAR": -0.016969448, "MEAN_MOTION_DOT": -0.0093504, "MEAN_MOTION_DDOT": 0}, "tle": {"line1": "1 66461U 25262F   25339.25002315 -.00935040  00000+0 -16969-1 0  9994", "line2": "2 66461  43.0001 114.9067 0000883 282.4655 337.4320 15.51206195  4430"}}, "geometry": {"type": "Point", "coordinates": [34.64854991942777, -42.30570846837529]}}, {"type": "Feature", "properties": {"norad_id": 66462, "name": "STARLINK-35499", "group": "last-30-days", "lat": -41.997034544377044, "lon": 37.19049969692422, "alt_km": 418.4282225919569, "timestamp": "2025-12-05T16:54:13.485469+00:00", "meta": {"OBJECT_NAME": "STARLINK-35499", "OBJECT_ID": "2025-262G", "EPOCH": "2025-12-05T06:00:02.000160", "MEAN_MOTION": 15.51201341, "ECCENTRICITY": 9.653e-05, "INCLINATION": 42.9998, "RA_OF_ASC_NODE": 114.9015, "ARG_OF_PERICENTER": 284.7848, "MEAN_ANOMALY": 337.0325, "EPHEMERIS_TYPE": 0, "CLASSIFICATION_TYPE": "U", "NORAD_CAT_ID": 66462, "ELEMENT_SET_NO": 999, "REV_AT_EPOCH": 443, "BSTAR": -0.016863567, "MEAN_MOTION_DOT": -0.00929537, "MEAN_MOTION_DDOT": 0}, "tle": {"line1": "1 66462U 25262G   25339.25002315 -.00929537  00000+0 -16864-1 0  9993", "line2": "2 66462  42.9998 114.9015 0000965 284.7848 337.0325 15.51201341  4436"}}, "geometry": {"type": "Point", "coordinates": [37.19049969692422, -41.997034544377044]}}, {"type": "Feature", "properties": {"norad_id": 66463, "name": "STARLINK-35463", "group": "last-30-days", "lat": -41.211097218480035, "lon": 42.209648863504846, "alt_km": 418.24629022226145, "timestamp": "2025-12-05T16:54:13.485479+00:00", "meta": {"OBJECT_NAME": "STARLINK-35463", "OBJECT_ID": "2025-262H", "EPOCH": "2025-12-05T06:00:02.000160", "MEAN_MOTION": 15.51200767, "ECCENTRICITY": 0.00011389, "INCLINATION": 42.9999, "RA_OF_ASC_NODE": 114.8913, "ARG_OF_PERICENTER": 269.6907, "MEAN_ANOMALY": 355.9567, "EPHEMERIS_TYPE": 0, "CLASSIFICATION_TYPE": "U", "NORAD_CAT_ID": 66463, "ELEMENT_SET_NO": 999, "REV_AT_EPOCH": 443, "BSTAR": -0.016555116, "MEAN_MOTION_DOT": -0.0091388, "MEAN_MOTION_DDOT": 0}, "tle": {"line1": "1 66463U 25262H   25339.25002315 -.00913880  00000+0 -16555-1 0  9995", "line2": "2 66463  42.9999 114.8913 0001138 269.6907 355.9567 15.51200767  4433"}}, "geometry": {"type": "Point", "coordinates": [42.209648863504846, -41.211097218480035]}}, {"type": "Feature", "properties": {"norad_id": 66464, "name": "STARLINK-35435", "group": "last-30-days", "lat": -41.63311408496287, "lon": 39.706825485099685, "alt_km": 418.44069367051816, "timestamp": "2025-12-05T16:54:13.485488+00:00", "meta": {"OBJECT_NAME": "STARLINK-35435", "OBJECT_ID": "2025-262J", "EPOCH": "2025-12-05T06:00:02.000160", "MEAN_MOTION": 15.51210143, "ECCENTRICITY": 9.483e-05, "INCLINATION": 43.0001, "RA_OF_ASC_NODE": 114.8967, "ARG_OF_PERICENTER": 284.6533, "MEAN_ANOMALY": 339.0791, "EPHEMERIS_TYPE": 0, "CLASSIFICATION_TYPE": "U", "NORAD_CAT_ID": 66464, "ELEMENT_SET_NO": 999, "REV_AT_EPOCH": 443, "BSTAR": -0.017159035, "MEAN_MOTION_DOT": -0.00944779, "MEAN_MOTION_DDOT": 0}, "tle": {"line1": "1 66464U 25262J   25339.25002315 -.00944779  00000+0 -17159-1 0  9998", "line2": "2 66464  43.0001 114.8967 0000948 284.6533 339.0791 15.51210143  4430"}}, "geometry": {"type": "Point", "coordinates": [39.706825485099685, -41.63311408496287]}}, {"type": "Feature", "properties": {"norad_id": 66465, "name": "STARLINK-35448", "group": "last-30-days", "lat": -40.21308094526425, "lon": 47.08946274912604, "alt_km": 418.168370196684, "timestamp": "2025-12-05T16:54:13.485497+00:00", "meta": {"OBJECT_NAME": "STARLINK-35448", "OBJECT_ID": "2025-262K", "EPOCH": "2025-12-05T06:00:02.000160", "MEAN_MOTION": 15.5117474, "ECCENTRICITY": 0.00013629, "INCLINATION": 42.9999, "RA_OF_ASC_NODE": 114.882, "ARG_OF_PERICENTER": 256.4308, "MEAN_ANOMALY": 13.0743, "EPHEMERIS_TYPE": 0, "CLASSIFICATION_TYPE": "U", "NORAD_CAT_ID": 66465, "ELEMENT_SET_NO": 999, "REV_AT_EPOCH": 443, "BSTAR": -0.016054459, "MEAN_MOTION_DOT": -0.00875897, "MEAN_MOTION_DDOT": 0}, "tle": {"line1": "1 66465U 25262K   25339.25002315 -.00875897  00000+0 -16054-1 0  9996", "line2": "2 66465  42.9999 114.8820 0001362 256.4308  13.0743 15.51174740  4439"}}, "geometry": {"type": "Point", "coordinates": [47.08946274912604, -40.21308094526425]}}, {"type": "Feature", "properties": {"norad_id": 66466, "name": "STARLINK-35388", "group": "last-30-days", "lat": -39.64658451478143, "lon": 49.439265913888185, "alt_km": 418.3968809775224, "timestamp": "2025-12-05T16:54:13.485508+00:00", "meta": {"OBJECT_NAME": "STARLINK-35388", "OBJECT_ID": "2025-262L", "EPOCH": "2025-12-05T06:00:02.000160", "MEAN_MOTION": 15.51210787, "ECCENTRICITY": 8.935e-05, "INCLINATION": 43.0001, "RA_OF_ASC_NODE": 114.8761, "ARG_OF_PERICENTER": 281.5226, "MEAN_ANOMALY": 349.8775, "EPHEMERIS_TYPE": 0, "CLASSIFICATION_TYPE": "U", "NORAD_CAT_ID": 66466, "ELEMENT_SET_NO": 999, "REV_AT_EPOCH": 443, "BSTAR": -0.01719182, "MEAN_MOTION_DOT": -0.00946447, "MEAN_MOTION_DDOT": 0}, "tle": {"line1": "1 66466U 25262L   25339.25002315 -.00946447  00000+0 -17192-1 0  9991", "line2": "2 66466  43.0001 114.8761 0000893 281.5226 349.8775 15.51210787  4433"}}, "geometry": {"type": "Point", "coordinates": [49.439265913888185, -39.64658451478143]}}, {"type": "Feature", "properties": {"norad_id": 66467, "name": "STARLINK-35682", "group": "last-30-days", "lat": -40.73861666105432, "lon": 44.66500008447894, "alt_km": 418.19983399453577, "timestamp": "2025-12-05T16:54:13.485517+00:00", "meta": {"OBJECT_NAME": "STARLINK-35682", "OBJECT_ID": "2025-262M", "EPOCH": "2025-12-05T06:00:02.000160", "MEAN_MOTION": 15.51204922, "ECCENTRICITY": 0.00012295, "INCLINATION": 43, "RA_OF_ASC_NODE": 114.8869, "ARG_OF_PERICENTER": 267.279, "MEAN_ANOMALY": 0.2878, "EPHEMERIS_TYPE": 0, "CLASSIFICATION_TYPE": "U", "NORAD_CAT_ID": 66467, "ELEMENT_SET_NO": 999, "REV_AT_EPOCH": 443, "BSTAR": -0.016747347, "MEAN_MOTION_DOT": -0.009238, "MEAN_MOTION_DDOT": 0}, "tle": {"line1": "1 66467U 25262M   25339.25002315 -.00923800  00000+0 -16747-1 0  9995", "line2": "2 66467  43.0000 114.8869 0001229 267.2790   0.2878 15.51204922  4439"}}, "geometry": {"type": "Point", "coordinates": [44.66500008447894, -40.73861666105432]}}, {"type": "Feature", "properties": {"norad_id": 66468, "name": "STARLINK-35331", "group": "last-30-days", "lat": -39.02144677755389, "lon": 51.79319274803201, "alt_km": 418.2031474882742, "timestamp": "2025-12-05T16:54:13.485525+00:00", "meta": {"OBJECT_NAME": "STARLINK-35331", "OBJECT_ID": "2025-262N", "EPOCH": "2025-12-05T06:00:02.000160", "MEAN_MOTION": 15.51202706, "ECCENTRICITY": 0.0001105, "INCLINATION": 43.0001, "RA_OF_ASC_NODE": 114.8722, "ARG_OF_PERICENTER": 269.2091, "MEAN_ANOMALY": 4.1039, "EPHEMERIS_TYPE": 0, "CLASSIFICATION_TYPE": "U", "NORAD_CAT_ID": 66468, "ELEMENT_SET_NO": 999, "REV_AT_EPOCH": 443, "BSTAR": -0.016573086, "MEAN_MOTION_DOT": -0.00914847, "MEAN_MOTION_DDOT": 0}, "tle": {"line1": "1 66468U 25262N   25339.25002315 -.00914847  00000+0 -16573-1 0  9994", "line2": "2 66468  43.0001 114.8722 0001105 269.2091   4.1039 15.51202706  4438"}}, "geometry": {"type": "Point", "coordinates": [51.79319274803201, -39.02144677755389]}}, {"type": "Feature", "properties": {"norad_id": 66469, "name": "STARLINK-35451", "group": "last-30-days", "lat": -36.8953025963093, "lon": 58.53038239620431, "alt_km": 418.2767734877634, "timestamp": "2025-12-05T16:54:13.485535+00:00", "meta": {"OBJECT_NAME": "STARLINK-35451", "OBJECT_ID": "2025-262P", "EPOCH": "2025-12-05T06:00:02.000160", "MEAN_MOTION": 15.5120954, "ECCENTRICITY": 9.231e-05, "INCLINATION": 43, "RA_OF_ASC_NODE": 114.8568, "ARG_OF_PERICENTER": 275.3799, "MEAN_ANOMALY": 3.6853, "EPHEMERIS_TYPE": 0, "CLASSIFICATION_TYPE": "U", "NORAD_CAT_ID": 66469, "ELEMENT_SET_NO": 999, "REV_AT_EPOCH": 443, "BSTAR": -0.017104613, "MEAN_MOTION_DOT": -0.00942, "MEAN_MOTION_DDOT": 0}, "tle": {"line1": "1 66469U 25262P   25339.25002315 -.00942000  00000+0 -17105-1 0  9999", "line2": "2 66469  43.0000 114.8568 0000923 275.3799   3.6853 15.51209540  4437"}}, "geometry": {"type": "Point", "coordinates": [58.53038239620431, -36.8953025963093]}}]}